[{"OBJECT_NAME":"STARLINK-32237","OBJECT_ID":"2024-144U","EPOCH":"2026-03-09T15:04:55.252128","MEAN_MOTION":15.30189107,"ECCENTRICITY":8.68e-5,"INCLINATION":53.1588,"RA_OF_ASC_NODE":217.1357,"ARG_OF_PERICENTER":58.8234,"MEAN_ANOMALY":301.2851,"EPHEMERIS_TYPE":0,"CLASSIFICATION_TYPE":"U","NORAD_CAT_ID":60443,"ELEMENT_SET_NO":999,"REV_AT_EPOCH":8930,"BSTAR":6.3376e-5,"MEAN_MOTION_DOT":1.518e-5,"MEAN_MOTION_DDOT":0},{"OBJECT_NAME":"SCS-01 D","OBJECT_ID":"2025-100D","EPOCH":"2026-03-09T18:08:45.040704","MEAN_MOTION":15.31902149,"ECCENTRICITY":0.00063457,"INCLINATION":97.373,"RA_OF_ASC_NODE":145.4097,"ARG_OF_PERICENTER":266.2302,"MEAN_ANOMALY":93.8214,"EPHEMERIS_TYPE":0,"CLASSIFICATION_TYPE":"U","NORAD_CAT_ID":63985,"ELEMENT_SET_NO":999,"REV_AT_EPOCH":4562,"BSTAR":0.0010528181,"MEAN_MOTION_DOT":0.00032471,"MEAN_MOTION_DDOT":0}]
